CCSDS_OMM_VERS = 2.0
CREATION_DATE  = 
ORIGINATOR     = 

OBJECT_NAME    = COSMOS 2242
OBJECT_ID      = 1993-024A
CENTER_NAME    = EARTH
REF_FRAME      = TEME
TIME_SYSTEM    = UTC
MEAN_ELEMENT_THEORY = SGP/SGP4

EPOCH          = 2026-03-15T22:06:05.761728
MEAN_MOTION    = 14.96575952
ECCENTRICITY   = .00149206
INCLINATION    = 82.5150
RA_OF_ASC_NODE = 260.7546
ARG_OF_PERICENTER = 286.0908
MEAN_ANOMALY   = 73.8671

EPHEMERIS_TYPE = 0
CLASSIFICATION_TYPE = U
NORAD_CAT_ID   = 22626
ELEMENT_SET_NO = 999
REV_AT_EPOCH   = 78132
BSTAR          = .18665648E-3
MEAN_MOTION_DOT = .2154E-4
MEAN_MOTION_DDOT = 0

CCSDS_OMM_VERS = 2.0
CREATION_DATE  = 
ORIGINATOR     = 

OBJECT_NAME    = SL-16 R/B
OBJECT_ID      = 1993-059B
CENTER_NAME    = EARTH
REF_FRAME      = TEME
TIME_SYSTEM    = UTC
MEAN_ELEMENT_THEORY = SGP/SGP4

EPOCH          = 2026-03-16T21:18:37.732608
MEAN_MOTION    = 14.17232316
ECCENTRICITY   = .0018115
INCLINATION    = 70.9930
RA_OF_ASC_NODE = 355.9478
ARG_OF_PERICENTER = 205.9642
MEAN_ANOMALY   = 154.0575

EPHEMERIS_TYPE = 0
CLASSIFICATION_TYPE = U
NORAD_CAT_ID   = 22803
ELEMENT_SET_NO = 999
REV_AT_EPOCH   = 68055
BSTAR          = .11803E-3
MEAN_MOTION_DOT = .191E-5
MEAN_MOTION_DDOT = 0

CCSDS_OMM_VERS = 2.0
CREATION_DATE  = 
ORIGINATOR     = 

OBJECT_NAME    = ARIANE 40 R/B
OBJECT_ID      = 1993-061H
CENTER_NAME    = EARTH
REF_FRAME      = TEME
TIME_SYSTEM    = UTC
MEAN_ELEMENT_THEORY = SGP/SGP4

EPOCH          = 2026-03-16T14:40:58.218816
MEAN_MOTION    = 14.32864707
ECCENTRICITY   = .0009575
INCLINATION    = 98.4902
RA_OF_ASC_NODE = 144.3624
ARG_OF_PERICENTER = 262.1782
MEAN_ANOMALY   = 97.8316

EPHEMERIS_TYPE = 0
CLASSIFICATION_TYPE = U
NORAD_CAT_ID   = 22830
ELEMENT_SET_NO = 999
REV_AT_EPOCH   = 69509
BSTAR          = .87434E-4
MEAN_MOTION_DOT = .195E-5
MEAN_MOTION_DDOT = 0

CCSDS_OMM_VERS = 2.0
CREATION_DATE  = 
ORIGINATOR     = 

OBJECT_NAME    = COSMOS 2278
OBJECT_ID      = 1994-023A
CENTER_NAME    = EARTH
REF_FRAME      = TEME
TIME_SYSTEM    = UTC
MEAN_ELEMENT_THEORY = SGP/SGP4

EPOCH          = 2026-03-16T14:23:03.313824
MEAN_MOTION    = 14.14379394
ECCENTRICITY   = .0008531
INCLINATION    = 71.0546
RA_OF_ASC_NODE = 160.6430
ARG_OF_PERICENTER = 1.0318
MEAN_ANOMALY   = 359.0821

EPHEMERIS_TYPE = 0
CLASSIFICATION_TYPE = U
NORAD_CAT_ID   = 23087
ELEMENT_SET_NO = 999
REV_AT_EPOCH   = 64578
BSTAR          = -.37212E-4
MEAN_MOTION_DOT = -.118E-5
MEAN_MOTION_DDOT = 0

CCSDS_OMM_VERS = 2.0
CREATION_DATE  = 
ORIGINATOR     = 

OBJECT_NAME    = SL-16 R/B
OBJECT_ID      = 1994-023B
CENTER_NAME    = EARTH
REF_FRAME      = TEME
TIME_SYSTEM    = UTC
MEAN_ELEMENT_THEORY = SGP/SGP4

EPOCH          = 2026-03-16T15:25:30.657216
MEAN_MOTION    = 14.15010026
ECCENTRICITY   = .0005572
INCLINATION    = 70.9990
RA_OF_ASC_NODE = 56.2836
ARG_OF_PERICENTER = 278.8188
MEAN_ANOMALY   = 81.2304

EPHEMERIS_TYPE = 0
CLASSIFICATION_TYPE = U
NORAD_CAT_ID   = 23088
ELEMENT_SET_NO = 999
REV_AT_EPOCH   = 64707
BSTAR          = -.31971E-4
MEAN_MOTION_DOT = -.11E-5
MEAN_MOTION_DDOT = 0

CCSDS_OMM_VERS = 2.0
CREATION_DATE  = 
ORIGINATOR     = 

OBJECT_NAME    = SL-16 R/B
OBJECT_ID      = 1994-074B
CENTER_NAME    = EARTH
REF_FRAME      = TEME
TIME_SYSTEM    = UTC
MEAN_ELEMENT_THEORY = SGP/SGP4

EPOCH          = 2026-03-16T20:21:50.813856
MEAN_MOTION    = 14.79416368
ECCENTRICITY   = .0006333
INCLINATION    = 97.7098
RA_OF_ASC_NODE = 106.3762
ARG_OF_PERICENTER = 185.3521
MEAN_ANOMALY   = 347.4257

EPHEMERIS_TYPE = 0
CLASSIFICATION_TYPE = U
NORAD_CAT_ID   = 23343
ELEMENT_SET_NO = 999
REV_AT_EPOCH   = 68830
BSTAR          = .65125E-4
MEAN_MOTION_DOT = .437E-5
MEAN_MOTION_DDOT = 0

CCSDS_OMM_VERS = 2.0
CREATION_DATE  = 
ORIGINATOR     = 

OBJECT_NAME    = SL-16 R/B
OBJECT_ID      = 1994-077B
CENTER_NAME    = EARTH
REF_FRAME      = TEME
TIME_SYSTEM    = UTC
MEAN_ELEMENT_THEORY = SGP/SGP4

EPOCH          = 2026-03-16T20:00:25.715808
MEAN_MOTION    = 14.15563836
ECCENTRICITY   = .0002683
INCLINATION    = 70.9851
RA_OF_ASC_NODE = 337.4611
ARG_OF_PERICENTER = 203.3491
MEAN_ANOMALY   = 156.7511

EPHEMERIS_TYPE = 0
CLASSIFICATION_TYPE = U
NORAD_CAT_ID   = 23405
ELEMENT_SET_NO = 999
REV_AT_EPOCH   = 61724
BSTAR          = .17198E-3
MEAN_MOTION_DOT = .289E-5
MEAN_MOTION_DDOT = 0

CCSDS_OMM_VERS = 2.0
CREATION_DATE  = 
ORIGINATOR     = 

OBJECT_NAME    = ARIANE 40+ R/B
OBJECT_ID      = 1995-021B
CENTER_NAME    = EARTH
REF_FRAME      = TEME
TIME_SYSTEM    = UTC
MEAN_ELEMENT_THEORY = SGP/SGP4

EPOCH          = 2026-03-16T20:19:18.982272
MEAN_MOTION    = 14.39777671
ECCENTRICITY   = .0007878
INCLINATION    = 98.4483
RA_OF_ASC_NODE = 147.2320
ARG_OF_PERICENTER = 117.7141
MEAN_ANOMALY   = 359.8322

EPHEMERIS_TYPE = 0
CLASSIFICATION_TYPE = U
NORAD_CAT_ID   = 23561
ELEMENT_SET_NO = 999
REV_AT_EPOCH   = 62027
BSTAR          = .96814E-4
MEAN_MOTION_DOT = .26E-5
MEAN_MOTION_DDOT = 0

CCSDS_OMM_VERS = 2.0
CREATION_DATE  = 
ORIGINATOR     = 

OBJECT_NAME    = SL-16 R/B
OBJECT_ID      = 1995-058B
CENTER_NAME    = EARTH
REF_FRAME      = TEME
TIME_SYSTEM    = UTC
MEAN_ELEMENT_THEORY = SGP/SGP4

EPOCH          = 2026-03-16T16:47:27.782304
MEAN_MOTION    = 14.15499736
ECCENTRICITY   = .0010479
INCLINATION    = 71.0223
RA_OF_ASC_NODE = 165.5387
ARG_OF_PERICENTER = 113.0613
MEAN_ANOMALY   = 247.1615

EPHEMERIS_TYPE = 0
CLASSIFICATION_TYPE = U
NORAD_CAT_ID   = 23705
ELEMENT_SET_NO = 999
REV_AT_EPOCH   = 56884
BSTAR          = .1115E-3
MEAN_MOTION_DOT = .171E-5
MEAN_MOTION_DDOT = 0

CCSDS_OMM_VERS = 2.0
CREATION_DATE  = 
ORIGINATOR     = 

OBJECT_NAME    = SL-16 R/B
OBJECT_ID      = 1996-051B
CENTER_NAME    = EARTH
REF_FRAME      = TEME
TIME_SYSTEM    = UTC
MEAN_ELEMENT_THEORY = SGP/SGP4

EPOCH          = 2026-03-15T23:21:36.481824
MEAN_MOTION    = 14.12417287
ECCENTRICITY   = .00145453
INCLINATION    = 70.7601
RA_OF_ASC_NODE = 161.9397
ARG_OF_PERICENTER = 138.2751
MEAN_ANOMALY   = 221.9481

EPHEMERIS_TYPE = 0
CLASSIFICATION_TYPE = U
NORAD_CAT_ID   = 24298
ELEMENT_SET_NO = 999
REV_AT_EPOCH   = 52253
BSTAR          = .61450355E-4
MEAN_MOTION_DOT = .64E-6
MEAN_MOTION_DDOT = 0

CCSDS_OMM_VERS = 2.0
CREATION_DATE  = 
ORIGINATOR     = 

OBJECT_NAME    = ORBVIEW 2 (SEASTAR)
OBJECT_ID      = 1997-037A
CENTER_NAME    = EARTH
REF_FRAME      = TEME
TIME_SYSTEM    = UTC
MEAN_ELEMENT_THEORY = SGP/SGP4

EPOCH          = 2026-03-16T21:01:26.051808
MEAN_MOTION    = 14.35500207
ECCENTRICITY   = .0002897
INCLINATION    = 98.8580
RA_OF_ASC_NODE = 240.3786
ARG_OF_PERICENTER = 57.1493
MEAN_ANOMALY   = 302.9970

EPHEMERIS_TYPE = 0
CLASSIFICATION_TYPE = U
NORAD_CAT_ID   = 24883
ELEMENT_SET_NO = 999
REV_AT_EPOCH   = 50950
BSTAR          = .10326E-3
MEAN_MOTION_DOT = .25E-5
MEAN_MOTION_DDOT = 0

CCSDS_OMM_VERS = 2.0
CREATION_DATE  = 
ORIGINATOR     = 

OBJECT_NAME    = SL-16 R/B
OBJECT_ID      = 1998-043G
CENTER_NAME    = EARTH
REF_FRAME      = TEME
TIME_SYSTEM    = UTC
MEAN_ELEMENT_THEORY = SGP/SGP4

EPOCH          = 2026-03-16T19:38:02.975136
MEAN_MOTION    = 14.26051449
ECCENTRICITY   = .0009845
INCLINATION    = 98.8265
RA_OF_ASC_NODE = 29.2324
ARG_OF_PERICENTER = 0.3878
MEAN_ANOMALY   = 359.7308

EPHEMERIS_TYPE = 0
CLASSIFICATION_TYPE = U
NORAD_CAT_ID   = 25400
ELEMENT_SET_NO = 999
REV_AT_EPOCH   = 44000
BSTAR          = .38098E-4
MEAN_MOTION_DOT = .46E-6
MEAN_MOTION_DDOT = 0

